SAUDISAT 1C (SO-50)     
1 27607U 02058C   26155.41047091  .00001212  00000+0  15984-3 0  9997
2 27607  64.5504 168.5155 0075504 264.8060  94.4426 14.83018633262563
SAUDISAT 2              
1 28371U 04025F   26155.52750085  .00000359  00000+0  91213-4 0  9999
2 28371  98.5505 155.1824 0024226 338.4708  21.5468 14.56676307163900
SAUDISAT 3              
1 31118U 07012B   26155.74625948  .00000347  00000+0  64258-4 0  9990
2 31118  98.1450 106.1392 0013250 267.0879  92.8811 14.71418148 25910
PISAT                   
1 41784U 16059B   26156.08746740  .00001084  00000+0  19209-3 0  9997
2 41784  97.8177 157.0604 0027619 242.8973 116.9415 14.68962156517961
FLYING LAPTOP           
1 42831U 17042G   26156.18682399  .00003742  00000+0  29606-3 0  9999
2 42831  97.4643 312.1861 0018878 161.0256 199.1676 15.01063045484659
SALSAT                  
1 46495U 20068K   26155.97862976  .00008911  00000+0  31300-3 0  9995
2 46495  97.8851 158.3021 0009245 356.4519   3.6652 15.29615280313492
